{"type": "FeatureCollection", "features": [ {"type": "Feature", "properties": {"norad_id": 66052, "name": "HRC MONOBLOCK CAMERA", "group": "stations", "lat": 26.195555828818584, "lon": -116.9268443456024, "alt_km": 399.30334994026634, "timestamp": "2025-12-23T20:42:35.830648+00:00", "meta": {"OBJECT_NAME": "HRC MONOBLOCK CAMERA", "OBJECT_ID": "1998-067XR", "EPOCH": "2025-12-23T06:12:12.769632", "MEAN_MOTION": 15.5485157, "ECCENTRICITY": 0.00022312, "INCLINATION": 51.6307, "RA_OF_ASC_NODE": 89.0322, "ARG_OF_PERICENTER": 234.8105, "MEAN_ANOMALY": 125.2677, "EPHEMERIS_TYPE": 0, "CLASSIFICATION_TYPE": "U", "NORAD_CAT_ID": 66052, "ELEMENT_SET_NO": 999, "REV_AT_EPOCH": 1047, "BSTAR": 0.00054431757, "MEAN_MOTION_DOT": 0.00036687, "MEAN_MOTION_DDOT": 0}, "tle": {"line1": "1 66052U 98067XR  25357.25848113  .00036687  00000+0  54432-3 0  9993", "line2": "2 66052  51.6307  89.0322 0002231 234.8105 125.2677 15.54851570 10471"}}, "geometry": {"type": "Point", "coordinates": [-116.9268443456024, 26.195555828818584]}}, {"type": "Feature", "properties": {"norad_id": 66174, "name": "HTV-X1", "group": "stations", "lat": -18.13134594879484, "lon": -77.57213570598793, "alt_km": 420.1296386633712, "timestamp": "2025-12-23T20:42:35.830659+00:00", "meta": {"OBJECT_NAME": "HTV-X1", "OBJECT_ID": "2025-241A", "EPOCH": "2025-12-23T04:21:36.091008", "MEAN_MOTION": 15.49746572, "ECCENTRICITY": 0.00031904, "INCLINATION": 51.6323, "RA_OF_ASC_NODE": 90.7678, "ARG_OF_PERICENTER": 289.6661, "MEAN_ANOMALY": 70.3984, "EPHEMERIS_TYPE": 0, "CLASSIFICATION_TYPE": "U", "NORAD_CAT_ID": 66174, "ELEMENT_SET_NO": 999, "REV_AT_EPOCH": 51, "BSTAR": 0.00021350548, "MEAN_MOTION_DOT": 0.00011641, "MEAN_MOTION_DDOT": 0}, "tle": {"line1": "1 66174U 25241A   25357.18166772  .00011641  00000+0  21351-3 0  9995", "line2": "2 66174  51.6323  90.7678 0003190 289.6661  70.3984 15.49746572   511"}}, "geometry": {"type": "Point", "coordinates": [-77.57213570598793, -18.13134594879484]}}, {"type": "Feature", "properties": {"norad_id": 66515, "name": "SZ-21 MODULE", "group": "stations", "lat": 38.39298844907798, "lon": 11.931708076594047, "alt_km": 373.6291940140518, "timestamp": "2025-12-23T20:42:35.830669+00:00", "meta": {"OBJECT_NAME": "SZ-21 MODULE", "OBJECT_ID": "2025-246C", "EPOCH": "2025-12-23T05:04:42.753216", "MEAN_MOTION": 15.63016962, "ECCENTRICITY": 0.00050368, "INCLINATION": 41.4769, "RA_OF_ASC_NODE": 312.1416, "ARG_OF_PERICENTER": 316.3209, "MEAN_ANOMALY": 43.7232, "EPHEMERIS_TYPE": 0, "CLASSIFICATION_TYPE": "U", "NORAD_CAT_ID": 66515, "ELEMENT_SET_NO": 999, "REV_AT_EPOCH": 608, "BSTAR": 0.00030579963, "MEAN_MOTION_DOT": 0.00028357, "MEAN_MOTION_DDOT": 0}, "tle": {"line1": "1 66515U 25246C   25357.21160594  .00028357  00000+0  30580-3 0  9995", "line2": "2 66515  41.4769 312.1416 0005036 316.3209  43.7232 15.63016962  6086"}}, "geometry": {"type": "Point", "coordinates": [11.931708076594047, 38.39298844907798]}}, {"type": "Feature", "properties": {"norad_id": 66645, "name": "SHENZHOU-22", "group": "stations", "lat": 17.10319873065672, "lon": -30.453985535690244, "alt_km": 387.01261608514324, "timestamp": "2025-12-23T20:42:35.830679+00:00", "meta": {"OBJECT_NAME": "SHENZHOU-22", "OBJECT_ID": "2025-272A", "EPOCH": "2025-12-23T06:45:56.635200", "MEAN_MOTION": 15.59596422, "ECCENTRICITY": 0.0007971, "INCLINATION": 41.4686, "RA_OF_ASC_NODE": 312.6856, "ARG_OF_PERICENTER": 124.3462, "MEAN_ANOMALY": 235.8132, "EPHEMERIS_TYPE": 0, "CLASSIFICATION_TYPE": "U", "NORAD_CAT_ID": 66645, "ELEMENT_SET_NO": 999, "REV_AT_EPOCH": 26550, "BSTAR": 0.00022671035, "MEAN_MOTION_DOT": 0.00018298, "MEAN_MOTION_DDOT": 0}, "tle": {"line1": "1 66645U 25272A   25357.28190550  .00018298  00000+0  22671-3 0  9995", "line2": "2 66645  41.4686 312.6856 0007971 124.3462 235.8132 15.59596422265505"}}, "geometry": {"type": "Point", "coordinates": [-30.453985535690244, 17.10319873065672]}}, {"type": "Feature", "properties": {"norad_id": 66664, "name": "SOYUZ-MS 28", "group": "stations", "lat": -18.13134741537525, "lon": -77.57213437563524, "alt_km": 420.129638723065, "timestamp": "2025-12-23T20:42:35.830689+00:00", "meta": {"OBJECT_NAME": "SOYUZ-MS 28", "OBJECT_ID": "2025-275A", "EPOCH": "2025-12-23T04:21:36.091008", "MEAN_MOTION": 15.49746572, "ECCENTRICITY": 0.00031904, "INCLINATION": 51.6323, "RA_OF_ASC_NODE": 90.7678, "ARG_OF_PERICENTER": 289.6661, "MEAN_ANOMALY": 70.3984, "EPHEMERIS_TYPE": 0, "CLASSIFICATION_TYPE": "U", "NORAD_CAT_ID": 66664, "ELEMENT_SET_NO": 999, "REV_AT_EPOCH": 128, "BSTAR": 0.00021350548, "MEAN_MOTION_DOT": 0.00011641, "MEAN_MOTION_DDOT": 0}, "tle": {"line1": "1 66664U 25275A   25357.18166772  .00011641  00000+0  21351-3 0  9996", "line2": "2 66664  51.6323  90.7678 0003190 289.6661  70.3984 15.49746572  1280"}}, "geometry": {"type": "Point", "coordinates": [-77.57213437563524, -18.13134741537525]}}, {"type": "Feature", "properties": {"norad_id": 66906, "name": "1998-067XS", "group": "stations", "lat": -50.20504006436128, "lon": 15.228255836231455, "alt_km": 416.1486269427305, "timestamp": "2025-12-23T20:42:35.830699+00:00", "meta": {"OBJECT_NAME": "1998-067XS", "OBJECT_ID": "1998-067XS", "EPOCH": "2025-12-22T11:01:48.942336", "MEAN_MOTION": 15.51071617, "ECCENTRICITY": 0.00028954, "INCLINATION": 51.6319, "RA_OF_ASC_NODE": 94.197, "ARG_OF_PERICENTER": 250.8689, "MEAN_ANOMALY": 109.1987, "EPHEMERIS_TYPE": 0, "CLASSIFICATION_TYPE": "U", "NORAD_CAT_ID": 66906, "ELEMENT_SET_NO": 999, "REV_AT_EPOCH": 312, "BSTAR": 0.00051361561, "MEAN_MOTION_DOT": 0.00030106, "MEAN_MOTION_DDOT": 0}, "tle": {"line1": "1 66906U 98067XS  25356.45959424  .00030106  00000+0  51362-3 0  9999", "line2": "2 66906  51.6319  94.1970 0002895 250.8689 109.1987 15.51071617  3121"}}, "geometry": {"type": "Point", "coordinates": [15.228255836231455, -50.20504006436128]}}, {"type": "Feature", "properties": {"norad_id": 66907, "name": "1998-067XT", "group": "stations", "lat": -9.988343341671547, "lon": 79.07077708291415, "alt_km": 409.03452157184984, "timestamp": "2025-12-23T20:42:35.830710+00:00", "meta": {"OBJECT_NAME": "1998-067XT", "OBJECT_ID": "1998-067XT", "EPOCH": "2025-12-22T07:41:32.890848", "MEAN_MOTION": 15.52583192, "ECCENTRICITY": 0.00038425, "INCLINATION": 51.6311, "RA_OF_ASC_NODE": 94.7687, "ARG_OF_PERICENTER": 286.1212, "MEAN_ANOMALY": 73.9355, "EPHEMERIS_TYPE": 0, "CLASSIFICATION_TYPE": "U", "NORAD_CAT_ID": 66907, "ELEMENT_SET_NO": 999, "REV_AT_EPOCH": 310, "BSTAR": 0.0011084243, "MEAN_MOTION_DOT": 0.00069527, "MEAN_MOTION_DDOT": 0}, "tle": {"line1": "1 66907U 98067XT  25356.32051957  .00069527  00000+0  11084-2 0  9995", "line2": "2 66907  51.6311  94.7687 0003842 286.1212  73.9355 15.52583192  3104"}}, "geometry": {"type": "Point", "coordinates": [79.07077708291415, -9.988343341671547]}}, {"type": "Feature", "properties": {"norad_id": 66908, "name": "1998-067XU", "group": "stations", "lat": -5.616726008979391, "lon": 82.61022276114613, "alt_km": 408.61940122488613, "timestamp": "2025-12-23T20:42:35.830720+00:00", "meta": {"OBJECT_NAME": "1998-067XU", "OBJECT_ID": "1998-067XU", "EPOCH": "2025-12-22T12:18:16.541280", "MEAN_MOTION": 15.52707663, "ECCENTRICITY": 0.00038713, "INCLINATION": 51.631, "RA_OF_ASC_NODE": 93.8007, "ARG_OF_PERICENTER": 283.9304, "MEAN_ANOMALY": 76.1255, "EPHEMERIS_TYPE": 0, "CLASSIFICATION_TYPE": "U", "NORAD_CAT_ID": 66908, "ELEMENT_SET_NO": 999, "REV_AT_EPOCH": 313, "BSTAR": 0.0010107547, "MEAN_MOTION_DOT": 0.00063598, "MEAN_MOTION_DDOT": 0}, "tle": {"line1": "1 66908U 98067XU  25356.51269145  .00063598  00000+0  10108-2 0  9995", "line2": "2 66908  51.6310  93.8007 0003871 283.9304  76.1255 15.52707663  3137"}}, "geometry": {"type": "Point", "coordinates": [82.61022276114613, -5.616726008979391]}}, {"type": "Feature", "properties": {"norad_id": 66909, "name": "SILVERSAT", "group": "stations", "lat": 0.6370651675674845, "lon": 87.56770653146954, "alt_km": 407.37253353897086, "timestamp": "2025-12-23T20:42:35.830733+00:00", "meta": {"OBJECT_NAME": "SILVERSAT", "OBJECT_ID": "1998-067XV", "EPOCH": "2025-12-22T12:16:28.422912", "MEAN_MOTION": 15.52898333, "ECCENTRICITY": 0.0003866, "INCLINATION": 51.6306, "RA_OF_ASC_NODE": 93.7929, "ARG_OF_PERICENTER": 288.2093, "MEAN_ANOMALY": 71.8476, "EPHEMERIS_TYPE": 0, "CLASSIFICATION_TYPE": "U", "NORAD_CAT_ID": 66909, "ELEMENT_SET_NO": 999, "REV_AT_EPOCH": 313, "BSTAR": 0.0011325313, "MEAN_MOTION_DOT": 0.00071888, "MEAN_MOTION_DDOT": 0}, "tle": {"line1": "1 66909U 98067XV  25356.51144008  .00071888  00000+0  11325-2 0  9999", "line2": "2 66909  51.6306  93.7929 0003866 288.2093  71.8476 15.52898333  3134"}}, "geometry": {"type": "Point", "coordinates": [87.56770653146954, 0.6370651675674845]}}, {"type": "Feature", "properties": {"norad_id": 66910, "name": "1998-067XW", "group": "stations", "lat": 8.163072748304664, "lon": 93.5710411209307, "alt_km": 408.0454518233619, "timestamp": "2025-12-23T20:42:35.830743+00:00", "meta": {"OBJECT_NAME": "1998-067XW", "OBJECT_ID": "1998-067XW", "EPOCH": "2025-12-23T06:45:57.042144", "MEAN_MOTION": 15.52963068, "ECCENTRICITY": 0.00039303, "INCLINATION": 51.6302, "RA_OF_ASC_NODE": 89.9385, "ARG_OF_PERICENTER": 266.0255, "MEAN_ANOMALY": 94.0285, "EPHEMERIS_TYPE": 0, "CLASSIFICATION_TYPE": "U", "NORAD_CAT_ID": 66910, "ELEMENT_SET_NO": 999, "REV_AT_EPOCH": 325, "BSTAR": 0.0010076721, "MEAN_MOTION_DOT": 0.00063997, "MEAN_MOTION_DDOT": 0}, "tle": {"line1": "1 66910U 98067XW  25357.28191021  .00063997  00000+0  10077-2 0  9998", "line2": "2 66910  51.6302  89.9385 0003930 266.0255  94.0285 15.52963068  3257"}}, "geometry": {"type": "Point", "coordinates": [93.5710411209307, 8.163072748304664]}}]}